ZHUHAI-1 OVS-02         
1 43440U 18040B   25272.87432846  .00015940  00000+0  72453-3 0  9990
2 43440  97.0652 300.9021 0006099  99.3506 260.8420 15.20806662413092
ZHUHAI-1 OHS-02         
1 43441U 18040C   25272.83130885  .00023863  00000+0  85235-3 0  9990
2 43441  97.0689 306.6690 0014269  88.7611 271.5264 15.28740416 74578
GAOFEN-6                
1 43484U 18048A   25272.85406937  .00001800  00000+0  26449-3 0  9990
2 43484  97.8126 339.5599 0010930 298.3781  61.6327 14.76641410394973
LUOJIA-1 01             
1 43485U 18048B   25272.82939101  .00006592  00000+0  76451-3 0  9993
2 43485  97.8350 350.1212 0007974 254.0922 105.9415 14.85739625395533
PAKTES 1A               
1 43529U 18056A   25272.81852337  .00007364  00000+0  63731-3 0  9990
2 43529  98.0954  54.1062 0020224 254.7210 105.1775 14.97317354392935
PRSS-1                  
1 43530U 18056B   25272.85822442  .00002196  00000+0  28786-3 0  9999
2 43530  97.8154 342.5729 0001671 100.1628 259.9774 14.81318973389880
HAIYANG-1C              
1 43609U 18068A   25272.80257756  .00000367  00000+0  14663-3 0  9991
2 43609  98.5518 343.4671 0011301 143.6050 216.5905 14.34148249369762
SSTL S1-4               
1 43618U 18071A   25272.80168049  .00002894  00000+0  26158-3 0  9990
2 43618  97.5356 149.6151 0000607  51.7872 308.3404 14.96200060384004
HAIYANG-2B              
1 43655U 18081A   25272.89402322  .00000028  00000+0  69939-4 0  9998
2 43655  99.3354 280.5430 0000355 207.4042 152.7091 13.79306433349046
CZ-4B R/B               
1 43656U 18081B   25272.66731259  .00000551  00000+0  18212-3 0  9996
2 43656  99.3777 164.7162 0204343 297.2144  60.8344 14.31705344362020
CFOSAT                  
1 43662U 18083A   25272.84052715  .00009461  00000+0  48852-3 0  9990
2 43662  97.3655 280.0283 0001143 118.3107 241.8242 15.16516103382983
TEN-KOH                 
1 43677U 18084G   25272.80450832  .00005863  00000+0  46248-3 0  9994
2 43677  98.0780  89.5108 0007114 238.0188 122.0344 15.01127993377073
DIWATA-2B               
1 43678U 18084H   25272.83209546  .00005451  00000+0  45648-3 0  9998
2 43678  98.1070  93.3254 0007909 270.8072  89.2243 14.98857175377192
STARS-AO                
1 43679U 18084J   25272.07546129  .00013707  00000+0  78723-3 0  9999
2 43679  98.0728 105.3243 0002258   8.5486 351.5781 15.12648855377935
AUTCUBE 2               
1 43681U 18084K   25271.48067580  .00009579  00000+0  63947-3 0  9999
2 43681  98.0855  98.9798 0009067 202.2295 157.8539 15.07220620377463
METOP-C                 
1 43689U 18087A   25272.70291015  .00000257  00000+0  13746-3 0  9994
2 43689  98.7040 331.5644 0001393 148.7147 211.4113 14.21498547357827
ES'HAIL 2               
1 43700U 18090A   25272.07891912  .00000148  00000+0  00000+0 0  9998
2 43700   0.0166 117.3330 0001474 102.8060 202.2031  1.00274691 25052
TIANPING 1B             
1 43714U 18094E   25272.89609170  .00545136  12974-3  11732-2 0  9995
2 43714  97.2908 312.9925 0001284 195.2083 164.9156 15.98503018383949
MOHAMMED VI-B           
1 43717U 18095A   25272.84461603  .00001819  00000+0  26483-3 0  9999
2 43717  97.9439 343.8833 0001218  87.0174 273.1176 14.77084719369751
HYSIS                   
1 43719U 18096A   25272.81449701  .00002848  00000+0  39613-3 0  9996
2 43719  98.0193 336.1143 0000620 124.3397 235.7872 14.78618464368947
COSMOS 2530             
1 43751U 18097A   25272.80538235  .00000045  00000+0  25550-3 0  9995
2 43751  82.5195  23.9037 0019019 241.1218 118.7953 12.42870484309944
COSMOS 2531             
1 43752U 18097B   25272.83265777  .00000032  00000+0  16072-3 0  9992
2 43752  82.5239  24.8543 0015701 260.0676  99.8631 12.42864967309961
COSMOS 2532             
1 43753U 18097C   25272.85960352  .00000045  00000+0  25143-3 0  9999
2 43753  82.5185  23.7414 0017201 262.1945  97.7182 12.42863239309932
MINXSS-2                
1 43758U 18099A   25272.75370529  .00042449  00000+0  14721-2 0  9999
2 43758  97.4899 339.3511 0012109 119.5489 240.6960 15.29614132374094
SIRION PATHFINDER-2     
1 43759U 18099B   25272.74246882  .00012527  00000+0  75092-3 0  9996
2 43759  97.4662 322.9836 0011029 117.2184 243.0171 15.11054673373244
AISTECHSAT 2            
1 43768U 18099L   25272.11792559  .00011053  00000+0  65326-3 0  9996
2 43768  97.4705 320.9054 0006719 116.3354 243.8567 15.11631181372781
FOX-1CLIFF (AO-95)      
1 43770U 18099N   25272.10543636  .00020852  00000+0  98628-3 0  9996
2 43770  97.4790 329.0307 0010457 176.2378 183.8938 15.19353767373475
2018-099Q               
1 43772U 18099Q   25272.72722660  .00066122  00000+0  18423-2 0  9996
2 43772  97.4594 338.8367 0003664  67.5701 292.5930 15.36541079374180
RANGE-A                 
1 43773U 18099R   25272.55887420  .00011078  00000+0  68112-3 0  9995
2 43773  97.4364 317.7174 0011659 159.9915 200.1775 15.10157598373119
HIBER-2                 
1 43774U 18099S   25272.76118280  .00114888  00000+0  21609-2 0  9992
2 43774  97.4751 344.7757 0004761  99.9969 260.1819 15.48129034374475
VESTA-1                 
1 43781U 18099Z   25272.78946494  .00151307  00000+0  26883-2 0  9994
2 43781  97.4475 338.0652 0003031 126.5868 233.5662 15.49632986374364
SNUSAT-2                
1 43782U 18099AA  25272.59908164  .00017891  00000+0  92302-3 0  9995
2 43782  97.4474 325.3292 0013080 122.7998 237.4497 15.16322089373463
SNUGLITE                
1 43784U 18099AC  25272.70330013  .00024221  00000+0  11329-2 0  9996
2 43784  97.4286 325.2481 0004755 118.0226 242.1490 15.19744685373656
ITASAT                  
1 43786U 18099AE  25272.73599023  .00015511  00000+0  84494-3 0  9995
2 43786  97.4445 324.6277 0014285 171.9567 188.1897 15.14412804373421
EAGLET-I                
1 43790U 18099AJ  25272.64674957  .00009738  00000+0  60129-3 0  9993
2 43790  97.4634 324.0955 0012441 158.3970 201.7787 15.10028890372975
ESEO                    
1 43792U 18099AL  25272.59650753  .00004519  00000+0  33914-3 0  9991
2 43792  97.4375 315.7747 0013495 137.9311 222.2953 15.03045140372643
THEA                    
1 43796U 18099AQ  25272.64276019  .00031280  00000+0  12735-2 0  9992
2 43796  97.4815 336.2358 0010542 125.5624 234.6597 15.24387831372855
ASTROCAST 0.1           
1 43798U 18099AS  25271.75340973  .00034413  00000+0  10979-2 0  9995
2 43798  97.4724 340.0584 0008236  84.6965 275.5216 15.32394785374174
JY1SAT (JO-97)          
1 43803U 18099AX  25272.61427788  .00029527  00000+0  12326-2 0  9996
2 43803  97.4537 330.8031 0008543 111.8863 248.3283 15.23573459373817
SUOMI-100               
1 43804U 18099AY  25272.09936690  .00021520  00000+0  97983-3 0  9994
2 43804  97.4604 329.2384 0013158 117.4902 242.7672 15.20631551373635
AL-FARABI 2             
1 43805U 18099AZ  25272.59304748  .00078951  00000+0  19581-2 0  9990
2 43805  97.4418 338.0959 0006588  85.9103 274.2895 15.40059066374372
CENTAURI-1              
1 43809U 18099BD  25272.06076297  .00011204  00000+0  64426-3 0  9998
2 43809  97.4635 324.4249 0016403 148.1285 212.0942 15.12524932372973
GLOBAL-2                
1 43812U 18099BG  25272.11890312  .00006850  00000+0  46765-3 0  9997
2 43812  97.3942 314.3000 0005404 348.1246  11.9853 15.06481354372574
SEAHAWK-1               
1 43820U 18099BQ  25272.07796001  .00016895  00000+0  85740-3 0  9997
2 43820  97.4381 323.9471 0010723 136.7684 223.4393 15.16937673372868
SAUDISAT 5A             
1 43831U 18102A   25272.84134826  .00013637  00000+0  55943-3 0  9993
2 43831  97.3460 334.4827 0009770 343.3204  16.7711 15.24315491375961
SAUDISAT 5B             
1 43833U 18102C   25272.84990448  .00013303  00000+0  53930-3 0  9999
2 43833  97.3546 337.0985 0010534 345.6303  14.4634 15.24711898376070
2018-102D               
1 43834U 18102D   25272.87596236  .00046326  00000+0  10365-2 0  9995
2 43834  97.3705 350.1267 0005874 302.6199  57.4482 15.43320277376823
ISAT                    
1 43879U 18111D   25272.77516752  .00058597  00000+0  17191-2 0  9995
2 43879  97.5865 189.9395 0009478 142.8156 217.3745 15.34921070370878
UWE-4                   
1 43880U 18111E   25272.75985733  .00040734  00000+0  14129-2 0  9996
2 43880  97.5810 187.5312 0011596 161.6441 198.5219 15.29622441370750
D-STAR ONE (SPARROW)    
1 43881U 18111F   25272.26575821  .00053643  00000+0  15002-2 0  9990
2 43881  97.6035 192.7670 0006134 169.0047 191.1331 15.36473421370903
JILIN-1 09              
1 43943U 19005B   25272.78416168  .00012152  00000+0  61532-3 0  9997
2 43943  97.4792   5.5207 0001311 284.4394  75.6694 15.17141935369611
JILIN-1 10              
1 43946U 19005E   25272.88932186  .00014797  00000+0  66015-3 0  9992
2 43946  97.4802   7.4862 0010043 111.8225 248.4080 15.21444599369674
EGYPTSAT-A (MISRSAT-A)  
1 44047U 19008A   25272.85119494  .00001547  00000+0  25196-3 0  9998
2 44047  98.0090 336.4581 0001472 106.2100 253.9269 14.72405945354932
EMISAT                  
1 44078U 19018A   25272.81985492  .00000505  00000+0  16169-3 0  9991
2 44078  98.5047 327.5289 0017753 283.3668  76.5543 14.43620564342490
JILIN-1 GAOFEN 3A       
1 44312U 19032C   25272.56389968  .00021086  00000+0  83583-3 0  9997
2 44312  44.9812 343.7339 0010250 262.5212  97.4505 15.25065831347947
XIAOXIANG 4             
1 44313U 19032D   25272.86079743  .00411239  00000+0  22147-2 0  9999
2 44313  44.9822 241.4279 0010324  95.4529 264.7551 15.78245554349247
WT 1A                   
1 44315U 19032F   25272.86898693  .00068204  00000+0  13848-2 0  9992
2 44315  44.9838 277.5358 0011678 349.3880  10.6761 15.45452670348779
WT 1B                   
1 44316U 19032G   25272.76091830  .00030587  00000+0  14089-2 0  9991
2 44316  44.9777  35.2801 0014547 219.3286 140.6538 15.19738073347352
PROX-1                  
1 44339U 19036A   25272.59886388  .00025817  00000+0  31062-2 0  9991
2 44339  23.9972  44.7480 0006127 273.7317  86.2480 14.82437053334645
